IRIDIUM 57 [-]          
1 25273U 98019B   24085.75954196  .00001216  00000+0  41947-3 0  9998
2 25273  86.3990 333.0808 0002158  88.0883 272.0560 14.35132751360454
IRIDIUM 63 [-]          
1 25286U 98021B   24085.88434084  .00001386  00000+0  47388-3 0  9991
2 25286  86.3926 269.9130 0001903  88.3242 271.8173 14.35653460359507
IRIDIUM 69 [-]          
1 25319U 98026A   24085.91873843  .00001678  00000+0  52844-3 0  9994
2 25319  86.3924 284.5485 0004260  73.5962 286.5705 14.39852746358530
IRIDIUM 71 [-]          
1 25320U 98026B   24085.93719373  .00001642  00000+0  51346-3 0  9992
2 25320  86.3917 279.3153 0004022 107.1101 253.0539 14.40178481359054
IRIDIUM 73 [-]          
1 25344U 98032C   24085.89617502  .00002242  00000+0  56967-3 0  9992
2 25344  86.4412 236.8610 0002673  85.8263 274.3247 14.50375218365550
